{
  "type": "FeatureCollection",
  "_placeholder": true,
  "_note": "MRF COORDINATES ARE SURVEYED -- all 31 were measured at the facility and are used exactly as supplied; every MRF entry carries `surveyed`: true. BOUNDARIES ARE NOT: the barangay outlines in barangay_zones.geojson are still generated shapes drawn around each barangay's published centre, so they decide where the map opens and nothing more. Re-import or correct a facility with tools/import_mrf_survey.py, or from the City Hall Admin MRF page. See docs/DATA_REQUIREMENTS.md.",
  "features": [
    {
      "type": "Feature",
      "properties": {
        "barangay_id": "brgy-01",
        "name": "Antonio Luna",
        "zone_group": "zone-a"
      },
      "geometry": {
        "type": "Polygon",
        "coordinates": [
          [
            [
              125.588986,
              9.074508
            ],
            [
              125.595311,
              9.073883
            ],
            [
              125.598386,
              9.079384
            ],
            [
              125.599206,
              9.084953
            ],
            [
              125.595924,
              9.089728
            ],
            [
              125.590361,
              9.090326
            ],
            [
              125.5857,
              9.088001
            ],
            [
              125.5826,
              9.083364
            ],
            [
              125.58416,
              9.077744
            ],
            [
              125.588986,
              9.074508
            ]
          ]
        ]
      }
    },
    {
      "type": "Feature",
      "properties": {
        "barangay_id": "brgy-02",
        "name": "Bay-ang",
        "zone_group": "zone-a"
      },
      "geometry": {
        "type": "Polygon",
        "coordinates": [
          [
            [
              125.572062,
              9.106993
            ],
            [
              125.57163,
              9.102989
            ],
            [
              125.574007,
              9.100021
            ],
            [
              125.577425,
              9.097488
            ],
            [
              125.580402,
              9.100542
            ],
            [
              125.584129,
              9.103029
            ],
            [
              125.581731,
              9.106772
            ],
            [
              125.579076,
              9.109283
            ],
            [
              125.575078,
              9.109861
            ],
            [
              125.572062,
              9.106993
            ]
          ]
        ]
      }
    },
    {
      "type": "Feature",
      "properties": {
        "barangay_id": "brgy-03",
        "name": "Bayabas",
        "zone_group": "zone-a"
      },
      "geometry": {
        "type": "Polygon",
        "coordinates": [
          [
            [
              125.588193,
              9.148057
            ],
            [
              125.588913,
              9.144209
            ],
            [
              125.590511,
              9.14093
            ],
            [
              125.594184,
              9.140067
            ],
            [
              125.597296,
              9.141916
            ],
            [
              125.598613,
              9.145078
            ],
            [
              125.598299,
              9.148731
            ],
            [
              125.594766,
              9.149505
            ],
            [
              125.591273,
              9.150683
            ],
            [
              125.588193,
              9.148057
            ]
          ]
        ]
      }
    },
    {
      "type": "Feature",
      "properties": {
        "barangay_id": "brgy-04",
        "name": "Caasinan",
        "zone_group": "zone-a"
      },
      "geometry": {
        "type": "Polygon",
        "coordinates": [
          [
            [
              125.520588,
              9.140501
            ],
            [
              125.518638,
              9.137074
            ],
            [
              125.519466,
              9.133305
            ],
            [
              125.52272,
              9.131206
            ],
            [
              125.526274,
              9.132382
            ],
            [
              125.527761,
              9.135467
            ],
            [
              125.527129,
              9.138672
            ],
            [
              125.524388,
              9.14067
            ],
            [
              125.520588,
              9.140501
            ]
          ]
        ]
      }
    },
    {
      "type": "Feature",
      "properties": {
        "barangay_id": "brgy-05",
        "name": "Cabinet",
        "zone_group": "zone-a"
      },
      "geometry": {
        "type": "Polygon",
        "coordinates": [
          [
            [
              125.526825,
              9.122146
            ],
            [
              125.52857,
              9.122767
            ],
            [
              125.53002,
              9.124535
            ],
            [
              125.529009,
              9.126757
            ],
            [
              125.526769,
              9.127338
            ],
            [
              125.524565,
              9.126688
            ],
            [
              125.523648,
              9.124466
            ],
            [
              125.52495,
              9.122609
            ],
            [
              125.526825,
              9.122146
            ]
          ]
        ]
      }
    },
    {
      "type": "Feature",
      "properties": {
        "barangay_id": "brgy-06",
        "name": "Calamba",
        "zone_group": "zone-a"
      },
      "geometry": {
        "type": "Polygon",
        "coordinates": [
          [
            [
              125.601793,
              9.108099
            ],
            [
              125.596059,
              9.105515
            ],
            [
              125.593865,
              9.10057
            ],
            [
              125.593967,
              9.095696
            ],
            [
              125.596124,
              9.089747
            ],
            [
              125.602644,
              9.089586
            ],
            [
              125.608424,
              9.092586
            ],
            [
              125.610794,
              9.099019
            ],
            [
              125.607059,
              9.104506
            ],
            [
              125.601793,
              9.108099
            ]
          ]
        ]
      }
    },
    {
      "type": "Feature",
      "properties": {
        "barangay_id": "brgy-07",
        "name": "Calibunan",
        "zone_group": "zone-b"
      },
      "geometry": {
        "type": "Polygon",
        "coordinates": [
          [
            [
              125.527466,
              9.106981
            ],
            [
              125.528541,
              9.101288
            ],
            [
              125.533973,
              9.098735
            ],
            [
              125.538523,
              9.102122
            ],
            [
              125.539098,
              9.107049
            ],
            [
              125.536397,
              9.111454
            ],
            [
              125.531063,
              9.111039
            ],
            [
              125.527466,
              9.106981
            ]
          ]
        ]
      }
    },
    {
      "type": "Feature",
      "properties": {
        "barangay_id": "brgy-08",
        "name": "Comagascas",
        "zone_group": "zone-b"
      },
      "geometry": {
        "type": "Polygon",
        "coordinates": [
          [
            [
              125.564979,
              9.144679
            ],
            [
              125.557636,
              9.14363
            ],
            [
              125.552206,
              9.14105
            ],
            [
              125.549114,
              9.135498
            ],
            [
              125.550534,
              9.128841
            ],
            [
              125.556368,
              9.124876
            ],
            [
              125.562344,
              9.127857
            ],
            [
              125.568074,
              9.131026
            ],
            [
              125.567154,
              9.137589
            ],
            [
              125.564979,
              9.144679
            ]
          ]
        ]
      }
    },
    {
      "type": "Feature",
      "properties": {
        "barangay_id": "brgy-09",
        "name": "Concepcion",
        "zone_group": "zone-b"
      },
      "geometry": {
        "type": "Polygon",
        "coordinates": [
          [
            [
              125.573028,
              9.190678
            ],
            [
              125.571247,
              9.17993
            ],
            [
              125.574098,
              9.168935
            ],
            [
              125.585374,
              9.170238
            ],
            [
              125.597315,
              9.174686
            ],
            [
              125.594511,
              9.187731
            ],
            [
              125.584256,
              9.19392
            ],
            [
              125.573028,
              9.190678
            ]
          ]
        ]
      }
    },
    {
      "type": "Feature",
      "properties": {
        "barangay_id": "brgy-10",
        "name": "Del Pilar",
        "zone_group": "zone-b"
      },
      "geometry": {
        "type": "Polygon",
        "coordinates": [
          [
            [
              125.582085,
              9.145976
            ],
            [
              125.586128,
              9.14552
            ],
            [
              125.588007,
              9.149006
            ],
            [
              125.589025,
              9.152205
            ],
            [
              125.587071,
              9.154987
            ],
            [
              125.58398,
              9.156806
            ],
            [
              125.579913,
              9.156134
            ],
            [
              125.57869,
              9.152216
            ],
            [
              125.579588,
              9.148731
            ],
            [
              125.582085,
              9.145976
            ]
          ]
        ]
      }
    },
    {
      "type": "Feature",
      "properties": {
        "barangay_id": "brgy-11",
        "name": "Katugasan",
        "zone_group": "zone-b"
      },
      "geometry": {
        "type": "Polygon",
        "coordinates": [
          [
            [
              125.59087,
              9.127614
            ],
            [
              125.591361,
              9.134746
            ],
            [
              125.585883,
              9.139834
            ],
            [
              125.578478,
              9.13821
            ],
            [
              125.576285,
              9.131493
            ],
            [
              125.577445,
              9.123862
            ],
            [
              125.585058,
              9.124542
            ],
            [
              125.59087,
              9.127614
            ]
          ]
        ]
      }
    },
    {
      "type": "Feature",
      "properties": {
        "barangay_id": "brgy-12",
        "name": "Kauswagan",
        "zone_group": "zone-b"
      },
      "geometry": {
        "type": "Polygon",
        "coordinates": [
          [
            [
              125.53265,
              9.128064
            ],
            [
              125.533724,
              9.129585
            ],
            [
              125.533168,
              9.131409
            ],
            [
              125.531823,
              9.133044
            ],
            [
              125.529634,
              9.132793
            ],
            [
              125.528334,
              9.131172
            ],
            [
              125.528028,
              9.129203
            ],
            [
              125.528922,
              9.127213
            ],
            [
              125.531116,
              9.126499
            ],
            [
              125.53265,
              9.128064
            ]
          ]
        ]
      }
    },
    {
      "type": "Feature",
      "properties": {
        "barangay_id": "brgy-13",
        "name": "La Union",
        "zone_group": "zone-b"
      },
      "geometry": {
        "type": "Polygon",
        "coordinates": [
          [
            [
              125.545823,
              9.085504
            ],
            [
              125.542392,
              9.090723
            ],
            [
              125.537135,
              9.095237
            ],
            [
              125.52984,
              9.093502
            ],
            [
              125.526093,
              9.087264
            ],
            [
              125.529077,
              9.080915
            ],
            [
              125.532664,
              9.076076
            ],
            [
              125.539248,
              9.074621
            ],
            [
              125.543042,
              9.080034
            ],
            [
              125.545823,
              9.085504
            ]
          ]
        ]
      }
    },
    {
      "type": "Feature",
      "properties": {
        "barangay_id": "brgy-14",
        "name": "Mabini",
        "zone_group": "zone-b"
      },
      "geometry": {
        "type": "Polygon",
        "coordinates": [
          [
            [
              125.547963,
              9.115279
            ],
            [
              125.547834,
              9.111598
            ],
            [
              125.549961,
              9.108635
            ],
            [
              125.554042,
              9.106925
            ],
            [
              125.557443,
              9.110079
            ],
            [
              125.557938,
              9.114544
            ],
            [
              125.555236,
              9.118254
            ],
            [
              125.550803,
              9.118035
            ],
            [
              125.547963,
              9.115279
            ]
          ]
        ]
      }
    },
    {
      "type": "Feature",
      "properties": {
        "barangay_id": "brgy-15",
        "name": "Mahaba",
        "zone_group": "zone-c"
      },
      "geometry": {
        "type": "Polygon",
        "coordinates": [
          [
            [
              125.626894,
              9.115752
            ],
            [
              125.619412,
              9.11125
            ],
            [
              125.620694,
              9.102974
            ],
            [
              125.622255,
              9.096245
            ],
            [
              125.628554,
              9.091023
            ],
            [
              125.635583,
              9.09514
            ],
            [
              125.641092,
              9.100368
            ],
            [
              125.639915,
              9.108036
            ],
            [
              125.633815,
              9.111588
            ],
            [
              125.626894,
              9.115752
            ]
          ]
        ]
      }
    },
    {
      "type": "Feature",
      "properties": {
        "barangay_id": "brgy-16",
        "name": "Poblacion 1",
        "zone_group": "zone-c"
      },
      "geometry": {
        "type": "Polygon",
        "coordinates": [
          [
            [
              125.532807,
              9.126081
            ],
            [
              125.530853,
              9.125077
            ],
            [
              125.529967,
              9.122997
            ],
            [
              125.531494,
              9.121477
            ],
            [
              125.533215,
              9.119998
            ],
            [
              125.535047,
              9.12141
            ],
            [
              125.535488,
              9.123367
            ],
            [
              125.535032,
              9.125524
            ],
            [
              125.532807,
              9.126081
            ]
          ]
        ]
      }
    },
    {
      "type": "Feature",
      "properties": {
        "barangay_id": "brgy-17",
        "name": "Poblacion 2",
        "zone_group": "zone-c"
      },
      "geometry": {
        "type": "Polygon",
        "coordinates": [
          [
            [
              125.53223,
              9.122919
            ],
            [
              125.534301,
              9.123204
            ],
            [
              125.535198,
              9.12506
            ],
            [
              125.534894,
              9.127409
            ],
            [
              125.532469,
              9.127815
            ],
            [
              125.530134,
              9.126747
            ],
            [
              125.529746,
              9.123912
            ],
            [
              125.53223,
              9.122919
            ]
          ]
        ]
      }
    },
    {
      "type": "Feature",
      "properties": {
        "barangay_id": "brgy-18",
        "name": "Poblacion 3",
        "zone_group": "zone-c"
      },
      "geometry": {
        "type": "Polygon",
        "coordinates": [
          [
            [
              125.52848,
              9.121145
            ],
            [
              125.530117,
              9.121046
            ],
            [
              125.531944,
              9.121449
            ],
            [
              125.531909,
              9.123319
            ],
            [
              125.532038,
              9.125297
            ],
            [
              125.530128,
              9.125855
            ],
            [
              125.528202,
              9.125844
            ],
            [
              125.52719,
              9.124189
            ],
            [
              125.526565,
              9.122128
            ],
            [
              125.52848,
              9.121145
            ]
          ]
        ]
      }
    },
    {
      "type": "Feature",
      "properties": {
        "barangay_id": "brgy-19",
        "name": "Poblacion 4",
        "zone_group": "zone-c"
      },
      "geometry": {
        "type": "Polygon",
        "coordinates": [
          [
            [
              125.530516,
              9.120841
            ],
            [
              125.529483,
              9.119189
            ],
            [
              125.530734,
              9.117694
            ],
            [
              125.532232,
              9.116853
            ],
            [
              125.533754,
              9.117541
            ],
            [
              125.534879,
              9.118718
            ],
            [
              125.5346,
              9.120335
            ],
            [
              125.533892,
              9.122254
            ],
            [
              125.531966,
              9.121543
            ],
            [
              125.530516,
              9.120841
            ]
          ]
        ]
      }
    },
    {
      "type": "Feature",
      "properties": {
        "barangay_id": "brgy-20",
        "name": "Poblacion 5",
        "zone_group": "zone-c"
      },
      "geometry": {
        "type": "Polygon",
        "coordinates": [
          [
            [
              125.536613,
              9.1203
            ],
            [
              125.534366,
              9.121539
            ],
            [
              125.532243,
              9.120801
            ],
            [
              125.531052,
              9.118864
            ],
            [
              125.531827,
              9.116358
            ],
            [
              125.534437,
              9.116267
            ],
            [
              125.536767,
              9.117519
            ],
            [
              125.536613,
              9.1203
            ]
          ]
        ]
      }
    },
    {
      "type": "Feature",
      "properties": {
        "barangay_id": "brgy-21",
        "name": "Poblacion 6",
        "zone_group": "zone-c"
      },
      "geometry": {
        "type": "Polygon",
        "coordinates": [
          [
            [
              125.535527,
              9.122506
            ],
            [
              125.537536,
              9.12329
            ],
            [
              125.536916,
              9.125351
            ],
            [
              125.536006,
              9.126858
            ],
            [
              125.534204,
              9.128022
            ],
            [
              125.5325,
              9.126694
            ],
            [
              125.531409,
              9.124966
            ],
            [
              125.532041,
              9.122973
            ],
            [
              125.53382,
              9.122148
            ],
            [
              125.535527,
              9.122506
            ]
          ]
        ]
      }
    },
    {
      "type": "Feature",
      "properties": {
        "barangay_id": "brgy-22",
        "name": "Poblacion 7",
        "zone_group": "zone-c"
      },
      "geometry": {
        "type": "Polygon",
        "coordinates": [
          [
            [
              125.538751,
              9.128074
            ],
            [
              125.536695,
              9.127299
            ],
            [
              125.535341,
              9.126385
            ],
            [
              125.534313,
              9.124753
            ],
            [
              125.535639,
              9.123354
            ],
            [
              125.537092,
              9.12274
            ],
            [
              125.538754,
              9.122903
            ],
            [
              125.540303,
              9.12418
            ],
            [
              125.539313,
              9.125927
            ],
            [
              125.538751,
              9.128074
            ]
          ]
        ]
      }
    },
    {
      "type": "Feature",
      "properties": {
        "barangay_id": "brgy-23",
        "name": "Poblacion 8",
        "zone_group": "zone-d"
      },
      "geometry": {
        "type": "Polygon",
        "coordinates": [
          [
            [
              125.53411,
              9.121829
            ],
            [
              125.53513,
              9.120464
            ],
            [
              125.537004,
              9.120167
            ],
            [
              125.537975,
              9.121742
            ],
            [
              125.538334,
              9.123226
            ],
            [
              125.537947,
              9.124972
            ],
            [
              125.536181,
              9.125632
            ],
            [
              125.534641,
              9.124748
            ],
            [
              125.533913,
              9.123353
            ],
            [
              125.53411,
              9.121829
            ]
          ]
        ]
      }
    },
    {
      "type": "Feature",
      "properties": {
        "barangay_id": "brgy-24",
        "name": "Poblacion 9",
        "zone_group": "zone-d"
      },
      "geometry": {
        "type": "Polygon",
        "coordinates": [
          [
            [
              125.539735,
              9.123814
            ],
            [
              125.53949,
              9.121845
            ],
            [
              125.540538,
              9.119728
            ],
            [
              125.542831,
              9.12026
            ],
            [
              125.545035,
              9.121207
            ],
            [
              125.544306,
              9.123486
            ],
            [
              125.543092,
              9.124921
            ],
            [
              125.541127,
              9.125262
            ],
            [
              125.539735,
              9.123814
            ]
          ]
        ]
      }
    },
    {
      "type": "Feature",
      "properties": {
        "barangay_id": "brgy-25",
        "name": "Poblacion 10",
        "zone_group": "zone-d"
      },
      "geometry": {
        "type": "Polygon",
        "coordinates": [
          [
            [
              125.53945,
              9.121067
            ],
            [
              125.538135,
              9.123196
            ],
            [
              125.535647,
              9.123142
            ],
            [
              125.533915,
              9.121403
            ],
            [
              125.534713,
              9.119191
            ],
            [
              125.536573,
              9.118347
            ],
            [
              125.538673,
              9.118836
            ],
            [
              125.53945,
              9.121067
            ]
          ]
        ]
      }
    },
    {
      "type": "Feature",
      "properties": {
        "barangay_id": "brgy-26",
        "name": "Poblacion 11",
        "zone_group": "zone-d"
      },
      "geometry": {
        "type": "Polygon",
        "coordinates": [
          [
            [
              125.533888,
              9.116168
            ],
            [
              125.535972,
              9.116029
            ],
            [
              125.538373,
              9.116889
            ],
            [
              125.537568,
              9.119335
            ],
            [
              125.535846,
              9.120506
            ],
            [
              125.533234,
              9.120738
            ],
            [
              125.532851,
              9.118115
            ],
            [
              125.533888,
              9.116168
            ]
          ]
        ]
      }
    },
    {
      "type": "Feature",
      "properties": {
        "barangay_id": "brgy-27",
        "name": "Poblacion 12",
        "zone_group": "zone-d"
      },
      "geometry": {
        "type": "Polygon",
        "coordinates": [
          [
            [
              125.538247,
              9.116495
            ],
            [
              125.540171,
              9.115476
            ],
            [
              125.542416,
              9.114814
            ],
            [
              125.543747,
              9.11682
            ],
            [
              125.543003,
              9.11875
            ],
            [
              125.541923,
              9.120388
            ],
            [
              125.539641,
              9.120665
            ],
            [
              125.538626,
              9.118647
            ],
            [
              125.538247,
              9.116495
            ]
          ]
        ]
      }
    },
    {
      "type": "Feature",
      "properties": {
        "barangay_id": "brgy-28",
        "name": "Puting Bato",
        "zone_group": "zone-d"
      },
      "geometry": {
        "type": "Polygon",
        "coordinates": [
          [
            [
              125.625751,
              9.130781
            ],
            [
              125.628693,
              9.12174
            ],
            [
              125.634893,
              9.114552
            ],
            [
              125.642747,
              9.119744
            ],
            [
              125.64761,
              9.126988
            ],
            [
              125.642331,
              9.134219
            ],
            [
              125.63314,
              9.138661
            ],
            [
              125.625751,
              9.130781
            ]
          ]
        ]
      }
    },
    {
      "type": "Feature",
      "properties": {
        "barangay_id": "brgy-29",
        "name": "Sanghan",
        "zone_group": "zone-d"
      },
      "geometry": {
        "type": "Polygon",
        "coordinates": [
          [
            [
              125.566478,
              9.084697
            ],
            [
              125.56927,
              9.081691
            ],
            [
              125.573613,
              9.081999
            ],
            [
              125.577504,
              9.084729
            ],
            [
              125.577022,
              9.089448
            ],
            [
              125.574151,
              9.092453
            ],
            [
              125.570404,
              9.0934
            ],
            [
              125.566162,
              9.092528
            ],
            [
              125.564729,
              9.088333
            ],
            [
              125.566478,
              9.084697
            ]
          ]
        ]
      }
    },
    {
      "type": "Feature",
      "properties": {
        "barangay_id": "brgy-30",
        "name": "Soriano",
        "zone_group": "zone-d"
      },
      "geometry": {
        "type": "Polygon",
        "coordinates": [
          [
            [
              125.559375,
              9.101197
            ],
            [
              125.560381,
              9.097529
            ],
            [
              125.56231,
              9.094048
            ],
            [
              125.566509,
              9.093614
            ],
            [
              125.570175,
              9.095861
            ],
            [
              125.572258,
              9.100127
            ],
            [
              125.569614,
              9.104079
            ],
            [
              125.565738,
              9.106801
            ],
            [
              125.561256,
              9.10512
            ],
            [
              125.559375,
              9.101197
            ]
          ]
        ]
      }
    },
    {
      "type": "Feature",
      "properties": {
        "barangay_id": "brgy-31",
        "name": "Tolosa",
        "zone_group": "zone-d"
      },
      "geometry": {
        "type": "Polygon",
        "coordinates": [
          [
            [
              125.525828,
              9.121356
            ],
            [
              125.523679,
              9.11966
            ],
            [
              125.52154,
              9.117836
            ],
            [
              125.523054,
              9.115437
            ],
            [
              125.525192,
              9.113877
            ],
            [
              125.527639,
              9.114963
            ],
            [
              125.528554,
              9.117241
            ],
            [
              125.527537,
              9.119218
            ],
            [
              125.525828,
              9.121356
            ]
          ]
        ]
      }
    }
  ]
}
